NUSAT-49 (KLARA DAN VO*)
1 60500U 24149AJ  26068.79810190  .00012912  00000+0  43568-3 0  9991
2 60500  97.3807 150.7380 0001132 286.7761  73.3356 15.30828857 86935
STARLINK-34768          
1 65095U 25167T   26068.19918916  .00028114  00000+0  95793-3 0  9993
2 65095  53.1620  29.0121 0001113  92.0767 268.0361 15.30193923 33408
